CCSDS_OMM_VERS = 2.0
CREATION_DATE  = 
ORIGINATOR     = 

OBJECT_NAME    = STARLINK-36715
OBJECT_ID      = 2026-025Z
CENTER_NAME    = EARTH
REF_FRAME      = TEME
TIME_SYSTEM    = UTC
MEAN_ELEMENT_THEORY = SGP/SGP4

EPOCH          = 2026-02-20T04:00:03.000096
MEAN_MOTION    = 15.93418975
ECCENTRICITY   = .0001419
INCLINATION    = 97.2713
RA_OF_ASC_NODE = 161.8747
ARG_OF_PERICENTER = 72.5903
MEAN_ANOMALY   = 199.3686

EPHEMERIS_TYPE = 0
CLASSIFICATION_TYPE = U
NORAD_CAT_ID   = 67716
ELEMENT_SET_NO = 999
REV_AT_EPOCH   = 309
BSTAR          = -.42577E-2
MEAN_MOTION_DOT = -.149879E-1
MEAN_MOTION_DDOT = .64614E-3

CCSDS_OMM_VERS = 2.0
CREATION_DATE  = 
ORIGINATOR     = 

OBJECT_NAME    = STARLINK-36385
OBJECT_ID      = 2026-025AA
CENTER_NAME    = EARTH
REF_FRAME      = TEME
TIME_SYSTEM    = UTC
MEAN_ELEMENT_THEORY = SGP/SGP4

EPOCH          = 2026-02-20T04:00:03.000096
MEAN_MOTION    = 15.92513817
ECCENTRICITY   = .00016
INCLINATION    = 97.2714
RA_OF_ASC_NODE = 161.8650
ARG_OF_PERICENTER = 65.0542
MEAN_ANOMALY   = 183.9690

EPHEMERIS_TYPE = 0
CLASSIFICATION_TYPE = U
NORAD_CAT_ID   = 67717
ELEMENT_SET_NO = 999
REV_AT_EPOCH   = 309
BSTAR          = -.45848E-2
MEAN_MOTION_DOT = -.1539467E-1
MEAN_MOTION_DDOT = .6728E-3

CCSDS_OMM_VERS = 2.0
CREATION_DATE  = 
ORIGINATOR     = 

OBJECT_NAME    = CZ-2F DEB
OBJECT_ID      = 2026-024E
CENTER_NAME    = EARTH
REF_FRAME      = TEME
TIME_SYSTEM    = UTC
MEAN_ELEMENT_THEORY = SGP/SGP4

EPOCH          = 2026-02-20T03:23:37.346208
MEAN_MOTION    = 15.17840669
ECCENTRICITY   = .0256766
INCLINATION    = 50.3132
RA_OF_ASC_NODE = 104.4717
ARG_OF_PERICENTER = 210.9958
MEAN_ANOMALY   = 147.5630

EPHEMERIS_TYPE = 0
CLASSIFICATION_TYPE = U
NORAD_CAT_ID   = 67718
ELEMENT_SET_NO = 999
REV_AT_EPOCH   = 196
BSTAR          = .39459E-2
MEAN_MOTION_DOT = .200239E-2
MEAN_MOTION_DDOT = 0

CCSDS_OMM_VERS = 2.0
CREATION_DATE  = 
ORIGINATOR     = 

OBJECT_NAME    = CZ-2F DEB
OBJECT_ID      = 2026-024F
CENTER_NAME    = EARTH
REF_FRAME      = TEME
TIME_SYSTEM    = UTC
MEAN_ELEMENT_THEORY = SGP/SGP4

EPOCH          = 2026-02-20T04:07:17.911776
MEAN_MOTION    = 14.98157325
ECCENTRICITY   = .0330539
INCLINATION    = 49.7902
RA_OF_ASC_NODE = 105.8824
ARG_OF_PERICENTER = 201.2835
MEAN_ANOMALY   = 157.4084

EPHEMERIS_TYPE = 0
CLASSIFICATION_TYPE = U
NORAD_CAT_ID   = 67719
ELEMENT_SET_NO = 999
REV_AT_EPOCH   = 161
BSTAR          = .3762E-2
MEAN_MOTION_DOT = .14801E-2
MEAN_MOTION_DDOT = 0

CCSDS_OMM_VERS = 2.0
CREATION_DATE  = 
ORIGINATOR     = 

OBJECT_NAME    = CZ-2F DEB
OBJECT_ID      = 2026-024G
CENTER_NAME    = EARTH
REF_FRAME      = TEME
TIME_SYSTEM    = UTC
MEAN_ELEMENT_THEORY = SGP/SGP4

EPOCH          = 2026-02-20T04:40:43.983264
MEAN_MOTION    = 14.95494879
ECCENTRICITY   = .0341218
INCLINATION    = 49.8291
RA_OF_ASC_NODE = 106.0339
ARG_OF_PERICENTER = 197.8808
MEAN_ANOMALY   = 160.9882

EPHEMERIS_TYPE = 0
CLASSIFICATION_TYPE = U
NORAD_CAT_ID   = 67720
ELEMENT_SET_NO = 999
REV_AT_EPOCH   = 193
BSTAR          = .38914E-2
MEAN_MOTION_DOT = .149165E-2
MEAN_MOTION_DDOT = 0

CCSDS_OMM_VERS = 2.0
CREATION_DATE  = 
ORIGINATOR     = 

OBJECT_NAME    = 2026-026N
OBJECT_ID      = 2026-026N
CENTER_NAME    = EARTH
REF_FRAME      = TEME
TIME_SYSTEM    = UTC
MEAN_ELEMENT_THEORY = SGP/SGP4

EPOCH          = 2026-02-19T16:00:01.999584
MEAN_MOTION    = 15.98739130
ECCENTRICITY   = .0001254
INCLINATION    = 97.2739
RA_OF_ASC_NODE = 104.3113
ARG_OF_PERICENTER = 83.8379
MEAN_ANOMALY   = 297.8192

EPHEMERIS_TYPE = 0
CLASSIFICATION_TYPE = U
NORAD_CAT_ID   = 67733
ELEMENT_SET_NO = 999
REV_AT_EPOCH   = 241
BSTAR          = -.3451E-2
MEAN_MOTION_DOT = -.1616295E-1
MEAN_MOTION_DDOT = .78657E-3

CCSDS_OMM_VERS = 2.0
CREATION_DATE  = 
ORIGINATOR     = 

OBJECT_NAME    = 2026-026P
OBJECT_ID      = 2026-026P
CENTER_NAME    = EARTH
REF_FRAME      = TEME
TIME_SYSTEM    = UTC
MEAN_ELEMENT_THEORY = SGP/SGP4

EPOCH          = 2026-02-19T16:00:01.999584
MEAN_MOTION    = 15.98927592
ECCENTRICITY   = .0001248
INCLINATION    = 97.2738
RA_OF_ASC_NODE = 104.3125
ARG_OF_PERICENTER = 89.4627
MEAN_ANOMALY   = 295.3181

EPHEMERIS_TYPE = 0
CLASSIFICATION_TYPE = U
NORAD_CAT_ID   = 67734
ELEMENT_SET_NO = 999
REV_AT_EPOCH   = 241
BSTAR          = -.34065E-2
MEAN_MOTION_DOT = -.1612323E-1
MEAN_MOTION_DDOT = .78461E-3

CCSDS_OMM_VERS = 2.0
CREATION_DATE  = 
ORIGINATOR     = 

OBJECT_NAME    = 2026-026Q
OBJECT_ID      = 2026-026Q
CENTER_NAME    = EARTH
REF_FRAME      = TEME
TIME_SYSTEM    = UTC
MEAN_ELEMENT_THEORY = SGP/SGP4

EPOCH          = 2026-02-19T16:00:01.999584
MEAN_MOTION    = 15.99439141
ECCENTRICITY   = .0001288
INCLINATION    = 97.2734
RA_OF_ASC_NODE = 104.3160
ARG_OF_PERICENTER = 80.4194
MEAN_ANOMALY   = 312.5836

EPHEMERIS_TYPE = 0
CLASSIFICATION_TYPE = U
NORAD_CAT_ID   = 67735
ELEMENT_SET_NO = 999
REV_AT_EPOCH   = 255
BSTAR          = -.32673E-2
MEAN_MOTION_DOT = -.1591595E-1
MEAN_MOTION_DDOT = .77033E-3

CCSDS_OMM_VERS = 2.0
CREATION_DATE  = 
ORIGINATOR     = 

OBJECT_NAME    = 2026-026R
OBJECT_ID      = 2026-026R
CENTER_NAME    = EARTH
REF_FRAME      = TEME
TIME_SYSTEM    = UTC
MEAN_ELEMENT_THEORY = SGP/SGP4

EPOCH          = 2026-02-19T16:00:01.999584
MEAN_MOTION    = 15.99190319
ECCENTRICITY   = .0001305
INCLINATION    = 97.2733
RA_OF_ASC_NODE = 104.3138
ARG_OF_PERICENTER = 80.5214
MEAN_ANOMALY   = 308.5035

EPHEMERIS_TYPE = 0
CLASSIFICATION_TYPE = U
NORAD_CAT_ID   = 67736
ELEMENT_SET_NO = 999
REV_AT_EPOCH   = 241
BSTAR          = -.33325E-2
MEAN_MOTION_DOT = -.1600782E-1
MEAN_MOTION_DDOT = .77646E-3

CCSDS_OMM_VERS = 2.0
CREATION_DATE  = 
ORIGINATOR     = 

OBJECT_NAME    = 2026-026S
OBJECT_ID      = 2026-026S
CENTER_NAME    = EARTH
REF_FRAME      = TEME
TIME_SYSTEM    = UTC
MEAN_ELEMENT_THEORY = SGP/SGP4

EPOCH          = 2026-02-19T16:00:01.999584
MEAN_MOTION    = 15.99595065
ECCENTRICITY   = .0001272
INCLINATION    = 97.2730
RA_OF_ASC_NODE = 104.3169
ARG_OF_PERICENTER = 74.7007
MEAN_ANOMALY   = 320.9843

EPHEMERIS_TYPE = 0
CLASSIFICATION_TYPE = U
NORAD_CAT_ID   = 67737
ELEMENT_SET_NO = 999
REV_AT_EPOCH   = 241
BSTAR          = -.32178E-2
MEAN_MOTION_DOT = -.1581379E-1
MEAN_MOTION_DDOT = .76249E-3

CCSDS_OMM_VERS = 2.0
CREATION_DATE  = 
ORIGINATOR     = 

OBJECT_NAME    = 2026-026T
OBJECT_ID      = 2026-026T
CENTER_NAME    = EARTH
REF_FRAME      = TEME
TIME_SYSTEM    = UTC
MEAN_ELEMENT_THEORY = SGP/SGP4

EPOCH          = 2026-02-19T16:00:01.999584
MEAN_MOTION    = 15.99801899
ECCENTRICITY   = .000134
INCLINATION    = 97.2729
RA_OF_ASC_NODE = 104.3184
ARG_OF_PERICENTER = 73.1637
MEAN_ANOMALY   = 325.8563

EPHEMERIS_TYPE = 0
CLASSIFICATION_TYPE = U
NORAD_CAT_ID   = 67738
ELEMENT_SET_NO = 999
REV_AT_EPOCH   = 241
BSTAR          = -.31719E-2
MEAN_MOTION_DOT = -.1577144E-1
MEAN_MOTION_DDOT = .76046E-3

CCSDS_OMM_VERS = 2.0
CREATION_DATE  = 
ORIGINATOR     = 

OBJECT_NAME    = 2026-026U
OBJECT_ID      = 2026-026U
CENTER_NAME    = EARTH
REF_FRAME      = TEME
TIME_SYSTEM    = UTC
MEAN_ELEMENT_THEORY = SGP/SGP4

EPOCH          = 2026-02-19T16:00:01.999584
MEAN_MOTION    = 16.01002856
ECCENTRICITY   = .000122
INCLINATION    = 97.2717
RA_OF_ASC_NODE = 104.3263
ARG_OF_PERICENTER = 75.7674
MEAN_ANOMALY   = 342.7608

EPHEMERIS_TYPE = 0
CLASSIFICATION_TYPE = U
NORAD_CAT_ID   = 67739
ELEMENT_SET_NO = 999
REV_AT_EPOCH   = 241
BSTAR          = -.28851E-2
MEAN_MOTION_DOT = -.1536166E-1
MEAN_MOTION_DDOT = .73406E-3

